KUIPER-00521            
1 68891U 26095AD  26166.94885176  .00027750  00000+0  72292-3 0  9998
2 68891  51.8835 248.0238 0000822 331.6175  28.4768 15.38656259  7540
KUIPER-00524            
1 68892U 26095AE  26167.16668980  .00050098  00000+0  21257-2 0  9991
2 68892  51.8896 247.6766 0001584  70.7275  31.7303 15.22609294  4333
VIASAT-3 F3             
1 68893U 26096A   26166.45113829 -.00000155  00000+0  00000+0 0  9991
2 68893   1.2856 279.8915 0733229 181.3181 220.2250  1.09039586   596
STARLINK-37527          
1 68895U 26097A   26167.09534794  .00017602  00000+0  54633-3 0  9992
2 68895  97.2840   2.5438 0001333  98.4365 261.7028 15.33442537  7319
STARLINK-37432          
1 68896U 26097B   26166.99746639  .00014730  00000+0  45768-3 0  9992
2 68896  97.2846   2.5244 0001206  88.8812 271.2569 15.33446928  7303
STARLINK-37534          
1 68897U 26097C   26167.04640955  .00009042  00000+0  28210-3 0  9997
2 68897  97.2839   2.6089 0001580  94.0067 266.1356 15.33440209  7314
STARLINK-37386          
1 68898U 26097D   26167.07902675 -.00002337  00000+0 -70100-4 0  9999
2 68898  97.2838   2.5654 0001662  93.9870 266.1562 15.33433558  7310
STARLINK-37514          
1 68899U 26097E   26167.08719002  .00013972  00000+0  43424-3 0  9994
2 68899  97.2834   2.5542 0001028  78.9839 281.1520 15.33451051  7316
STARLINK-36961          
1 68900U 26097F   26167.07087346  .00010495  00000+0  32684-3 0  9998
2 68900  97.2842   2.5727 0000785  56.9828 303.1490 15.33455972  7313
STARLINK-37360          
1 68901U 26097G   26167.10350469  .00015693  00000+0  48739-3 0  9995
2 68901  97.2840   2.6851 0000501 104.2978 255.8321 15.33447387  7328
STARLINK-37564          
1 68902U 26097H   26166.98930797  .00021618  00000+0  66980-3 0  9991
2 68902  97.2825   2.5320 0001336  20.2073 339.9223 15.33455716  7300
STARLINK-37567          
1 68903U 26097J   26167.07631738  .00017245  00000+0  53519-3 0  9991
2 68903  97.2841   2.5674 0001484  87.5554 272.5859 15.33448701  7319
STARLINK-37528          
1 68904U 26097K   26166.98658937  .00017244  00000+0  53530-3 0  9993
2 68904  97.2849   2.5390 0001368  86.9886 273.1513 15.33442064  7304
STARLINK-37494          
1 68905U 26097L   26167.06815838  .00011529  00000+0  35878-3 0  9994
2 68905  97.2863   2.5807 0001131  85.9433 274.1938 15.33455904  7319
STARLINK-37541          
1 68906U 26097M   26167.09263846  .00018059  00000+0  56062-3 0  9997
2 68906  97.2844   2.5467 0001881 105.3405 254.8046 15.33430278  7311
STARLINK-37551          
1 68907U 26097N   26167.08993308  .00013579  00000+0  42218-3 0  9990
2 68907  97.2839   2.5508 0001719  97.1666 262.9772 15.33444610  7310
STARLINK-37566          
1 68908U 26097P   26167.08446074  .00036806  00000+0  11352-2 0  9996
2 68908  97.2834   2.5578 0001817 105.7725 254.3718 15.33491115  7311
STARLINK-37544          
1 68909U 26097Q   26167.08175384  .00024203  00000+0  74964-3 0  9997
2 68909  97.2832   2.5613 0001163  78.5490 281.5884 15.33444404  7315
STARLINK-37493          
1 68910U 26097R   26167.07359933  .00011383  00000+0  35439-3 0  9991
2 68910  97.2843   2.5741 0002165  79.2966 280.8520 15.33442864  7317
STARLINK-37543          
1 68911U 26097S   26166.99474451  .00016609  00000+0  51554-3 0  9997
2 68911  97.2861   2.5283 0000896  85.8236 274.3109 15.33451855  7301
STARLINK-37477          
1 68912U 26097T   26166.98385914 -.00019557  00000+0 -60520-3 0  9992
2 68912  97.2834   2.5418 0001673  76.9277 283.2153 15.33433827  7309
STARLINK-37504          
1 68913U 26097U   26167.06544095  .00016511  00000+0  51259-3 0  9994
2 68913  97.2848   2.5826 0001187  87.2700 272.8678 15.33448580  7313
STARLINK-37540          
1 68914U 26097V   26166.99202513  .00022351  00000+0  69248-3 0  9998
2 68914  97.2858   2.5303 0001075  92.6204 267.5162 15.33450760  7301
STARLINK-37516          
1 68915U 26097W   26167.10078949  .00017101  00000+0  53091-3 0  9993
2 68915  97.2843   2.6911 0001338  91.2567 268.8829 15.33439591  7326
STARLINK-37507          
1 68916U 26097X   26167.10894447  .00012140  00000+0  37775-3 0  9992
2 68916  97.2842   2.6800 0001485  89.2463 270.8950 15.33446222  7325
STARLINK-37542          
1 68917U 26097Y   26167.10622294  .00012288  00000+0  38230-3 0  9992
2 68917  97.2837   2.6820 0000980  98.2040 261.9314 15.33447544  7325
STARLINK-37529          
1 68918U 26097Z   26167.09806881  .00007178  00000+0  22450-3 0  9996
2 68918  97.2842   2.6931 0001179  89.3080 270.8297 15.33440599  7323
KUIPER-00370            
1 68919U 26098A   26166.98830610  .00011427  00000+0  42211-3 0  9991
2 68919  51.8755  74.9179 0014183 149.5739 210.6069 15.28110948  7143
KUIPER-00380            
1 68920U 26098B   26167.10614855  .00013825  00000+0  45821-3 0  9993
2 68920  51.8748  73.4909 0008089 136.4237 223.7388 15.31527552  7177
KUIPER-00386            
1 68921U 26098C   26167.03674266  .00025257  00000+0  71655-3 0  9994
2 68921  51.8740  73.0409 0002785 167.3808 192.7248 15.36061779  7174
