OBJECT_NAME,OBJECT_ID,EPOCH,MEAN_MOTION,ECCENTRICITY,INCLINATION,RA_OF_ASC_NODE,ARG_OF_PERICENTER,MEAN_ANOMALY,EPHEMERIS_TYPE,CLASSIFICATION_TYPE,NORAD_CAT_ID,ELEMENT_SET_NO,REV_AT_EPOCH,BSTAR,MEAN_MOTION_DOT,MEAN_MOTION_DDOT
KUIPER-00521,2026-095AD,2026-06-15T22:46:20.792064,15.38656259,.0000822,51.8835,248.0238,331.6175,28.4768,0,U,68891,999,754,.72292E-3,.2775E-3,0
KUIPER-00524,2026-095AE,2026-06-16T04:00:01.998720,15.22609294,.0001584,51.8896,247.6766,70.7275,31.7303,0,U,68892,999,433,.21257E-2,.50098E-3,0
VIASAT-3 F3,2026-096A,2026-06-15T10:49:38.348256,1.09039586,.0733229,1.2856,279.8915,181.3181,220.2250,0,U,68893,999,59,0,-.155E-5,0
STARLINK-37527,2026-097A,2026-06-16T02:17:18.062016,15.33442537,.0001333,97.2840,2.5438,98.4365,261.7028,0,U,68895,999,731,.54633E-3,.17602E-3,0
STARLINK-37432,2026-097B,2026-06-15T23:56:21.096096,15.33446928,.0001206,97.2846,2.5244,88.8812,271.2569,0,U,68896,999,730,.45768E-3,.1473E-3,0
STARLINK-37534,2026-097C,2026-06-16T01:06:49.785120,15.33440209,.000158,97.2839,2.6089,94.0067,266.1356,0,U,68897,999,731,.2821E-3,.9042E-4,0
STARLINK-37386,2026-097D,2026-06-16T01:53:47.911200,15.33433558,.0001662,97.2838,2.5654,93.9870,266.1562,0,U,68898,999,731,-.701E-4,-.2337E-4,0
STARLINK-37514,2026-097E,2026-06-16T02:05:33.217728,15.33451051,.0001028,97.2834,2.5542,78.9839,281.1520,0,U,68899,999,731,.43424E-3,.13972E-3,0
STARLINK-36961,2026-097F,2026-06-16T01:42:03.466944,15.33455972,.0000785,97.2842,2.5727,56.9828,303.1490,0,U,68900,999,731,.32684E-3,.10495E-3,0
STARLINK-37360,2026-097G,2026-06-16T02:29:02.805216,15.33447387,.0000501,97.2840,2.6851,104.2978,255.8321,0,U,68901,999,732,.48739E-3,.15693E-3,0
STARLINK-37564,2026-097H,2026-06-15T23:44:36.208608,15.33455716,.0001336,97.2825,2.5320,20.2073,339.9223,0,U,68902,999,730,.6698E-3,.21618E-3,0
STARLINK-37567,2026-097J,2026-06-16T01:49:53.821632,15.33448701,.0001484,97.2841,2.5674,87.5554,272.5859,0,U,68903,999,731,.53519E-3,.17245E-3,0
STARLINK-37528,2026-097K,2026-06-15T23:40:41.321568,15.33442064,.0001368,97.2849,2.5390,86.9886,273.1513,0,U,68904,999,730,.5353E-3,.17244E-3,0
STARLINK-37494,2026-097L,2026-06-16T01:38:08.884032,15.33455904,.0001131,97.2863,2.5807,85.9433,274.1938,0,U,68905,999,731,.35878E-3,.11529E-3,0
STARLINK-37541,2026-097M,2026-06-16T02:13:23.962944,15.33430278,.0001881,97.2844,2.5467,105.3405,254.8046,0,U,68906,999,731,.56062E-3,.18059E-3,0
STARLINK-37551,2026-097N,2026-06-16T02:09:30.218112,15.33444610,.0001719,97.2839,2.5508,97.1666,262.9772,0,U,68907,999,731,.42218E-3,.13579E-3,0
STARLINK-37566,2026-097P,2026-06-16T02:01:37.407936,15.33491115,.0001817,97.2834,2.5578,105.7725,254.3718,0,U,68908,999,731,.11352E-2,.36806E-3,0
STARLINK-37544,2026-097Q,2026-06-16T01:57:43.531776,15.33444404,.0001163,97.2832,2.5613,78.5490,281.5884,0,U,68909,999,731,.74964E-3,.24203E-3,0
STARLINK-37493,2026-097R,2026-06-16T01:45:58.982112,15.33442864,.0002165,97.2843,2.5741,79.2966,280.8520,0,U,68910,999,731,.35439E-3,.11383E-3,0
STARLINK-37543,2026-097S,2026-06-15T23:52:25.925664,15.33451855,.0000896,97.2861,2.5283,85.8236,274.3109,0,U,68911,999,730,.51554E-3,.16609E-3,0
STARLINK-37477,2026-097T,2026-06-15T23:36:45.429696,15.33433827,.0001673,97.2834,2.5418,76.9277,283.2153,0,U,68912,999,730,-.6052E-3,-.19557E-3,0
STARLINK-37504,2026-097U,2026-06-16T01:34:14.098080,15.33448580,.0001187,97.2848,2.5826,87.2700,272.8678,0,U,68913,999,731,.51259E-3,.16511E-3,0
STARLINK-37540,2026-097V,2026-06-15T23:48:30.971232,15.33450760,.0001075,97.2858,2.5303,92.6204,267.5162,0,U,68914,999,730,.69248E-3,.22351E-3,0
STARLINK-37516,2026-097W,2026-06-16T02:25:08.211936,15.33439591,.0001338,97.2843,2.6911,91.2567,268.8829,0,U,68915,999,732,.53091E-3,.17101E-3,0
STARLINK-37507,2026-097X,2026-06-16T02:36:52.802208,15.33446222,.0001485,97.2842,2.6800,89.2463,270.8950,0,U,68916,999,732,.37775E-3,.1214E-3,0
STARLINK-37542,2026-097Y,2026-06-16T02:32:57.662016,15.33447544,.000098,97.2837,2.6820,98.2040,261.9314,0,U,68917,999,732,.3823E-3,.12288E-3,0
STARLINK-37529,2026-097Z,2026-06-16T02:21:13.145184,15.33440599,.0001179,97.2842,2.6931,89.3080,270.8297,0,U,68918,999,732,.2245E-3,.7178E-4,0
KUIPER-00370,2026-098A,2026-06-15T23:43:09.647040,15.28110948,.0014183,51.8755,74.9179,149.5739,210.6069,0,U,68919,999,714,.42211E-3,.11427E-3,0
KUIPER-00380,2026-098B,2026-06-16T02:32:51.234720,15.31527552,.0008089,51.8748,73.4909,136.4237,223.7388,0,U,68920,999,717,.45821E-3,.13825E-3,0
KUIPER-00386,2026-098C,2026-06-16T00:52:54.565824,15.36061779,.0002785,51.8740,73.0409,167.3808,192.7248,0,U,68921,999,717,.71655E-3,.25257E-3,0
